GALAXY 25 (G-25)        
1 24812U 97026A   24077.85190934 -.00000238  00000+0  00000+0 0  9992
2 24812   5.3068  77.0769 0010692 304.8094 268.4111  0.99094897 98086
INTELSAT 5 (IS-5)       
1 24916U 97046A   24077.70847480 -.00000074  00000+0  00000+0 0  9996
2 24916   8.6038  56.2169 0002734 253.5416 287.1948  1.00271910 97387
GALAXY 11 (G-11)        
1 26038U 99071A   24077.85164828 -.00000068  00000+0  00000+0 0  9990
2 26038   4.6307  80.4225 0000814 275.2025 293.1432  1.00271267 88846
INTELSAT 9 (IS-9)       
1 26451U 00043A   24077.74145638 -.00000208  00000+0  00000+0 0  9992
2 26451   8.5896  56.4136 0003983 274.1814  84.1437  1.00377245 35904
INTELSAT 1R (IS-1R)     
1 26608U 00072A   24077.84982080 -.00000151  00000+0  00000+0 0  9996
2 26608   6.0270  73.6127 0001625 299.0242 266.3005  1.00271712 85418
INTELSAT 10 (IS-10)     
1 26766U 01019A   24077.77809289 -.00000182  00000+0  00000+0 0  9998
2 26766   7.1059  67.5238 0003182 278.0383 266.6829  1.00164371 37380
INTELSAT 901 (IS-901)   
1 26824U 01024A   24077.81316301 -.00000215  00000+0  00000+0 0  9999
2 26824   0.0161 232.1809 0000847 127.9996  80.9313  1.00271871 14746
INTELSAT 902 (IS-902)   
1 26900U 01039A   24077.88027872 -.00000295  00000+0  00000+0 0  9997
2 26900   4.0271  81.6940 0002532 310.2484  50.7791  1.00270333 82463
INTELSAT 904 (IS-904)   
1 27380U 02007A   24077.88428175 -.00000226  00000+0  00000+0 0  9991
2 27380   4.8491  78.8681 0003159 275.4008 110.4858  1.00273010 43536
DIRECTV 5 (TEMPO 1)     
1 27426U 02023A   24077.65347652 -.00000069  00000+0  00000+0 0  9990
2 27426   2.7652  85.5394 0003360 270.7891 304.4912  1.00272239 79886
INTELSAT 905 (IS-905)   
1 27438U 02027A   24077.88532602 -.00000197  00000+0  00000+0 0  9995
2 27438   4.6741  79.5335 0002800 263.6294 126.9732  1.00274057 43139
GALAXY 3C (G-3C)        
1 27445U 02030A   24077.58483597 -.00000165  00000+0  00000+0 0  9997
2 27445   1.6082  88.1079 0001420 343.3628 219.8398  1.00271810 38258
INTELSAT 906 (IS-906)   
1 27513U 02041A   24077.62931111  .00000001  00000+0  00000+0 0  9998
2 27513   3.7008  82.9678 0003099 260.1335 123.2867  1.00273589 78794
GALAXY 12 (G-12)        
1 27715U 03013B   24077.90795190 -.00000021  00000+0  00000+0 0  9991
2 27715   4.8870  78.6381 0004097 287.5108 226.0538  0.98982329 43839
GALAXY 23 (G-23)        
1 27854U 03034A   24077.72292057  .00000000  00000+0  00000+0 0  9998
2 27854   1.0678  90.2528 0002775 268.8302 316.0486  1.00271398 75502
GALAXY 13 (HORIZONS-1)  
1 27954U 03044A   24077.64555747  .00000120  00000+0  00000+0 0  9992
2 27954   0.0341 253.5486 0000641 119.2743 245.2592  1.00271346 38338
INTELSAT 10-02          
1 28358U 04022A   24077.38870045 -.00000024  00000+0  00000+0 0  9994
2 28358   0.0348 260.8206 0000888  77.1384 336.4027  1.00272933 72316
XM-3 (RHYTHM)           
1 28626U 05008A   24077.94484949 -.00000219  00000+0  00000+0 0  9999
2 28626   0.0170 165.5919 0000305 138.0569 127.3860  1.00272594 69833
DIRECTV 8               
1 28659U 05019A   24077.58013675 -.00000011  00000+0  00000+0 0  9991
2 28659   0.0176 155.8768 0002977 208.7693 260.7645  1.00272004 68837
GALAXY 28 (G-28)        
1 28702U 05022A   24078.16577345 -.00000199  00000+0  00000+0 0  9995
2 28702   1.1734  88.9828 0003982 221.5401 196.3591  1.00271688 68592
GALAXY 14 (G-14)        
1 28790U 05030A   24078.18311740  .00000142  00000+0  00000+0 0  9995
2 28790   2.8963  84.8990 0001604 258.1253 291.9909  1.00271522 68060
GALAXY 15 (G-15)        
1 28884U 05041A   24077.91299455 -.00000259  00000+0  00000+0 0  9999
2 28884   1.3920  84.9769 0011657 121.2576  69.7460  0.98942039 67317
SPACEWAY 2              
1 28903U 05046B   24078.14900453  .00000090  00000+0  00000+0 0  9991
2 28903   3.3922  81.2602 0001005 238.8036 130.8615  1.00272591 67260
GALAXY 16 (G-16)        
1 29236U 06023A   24077.87053219 -.00000140  00000+0  00000+0 0  9992
2 29236   0.0407 250.8549 0002855 107.5769  31.8457  1.00272339 64738
DIRECTV 9S              
1 29494U 06043A   24077.65530399 -.00000126  00000+0  00000+0 0  9999
2 29494   0.2932  89.8037 0003210 272.9137 307.6816  1.00272224 43141
XM-4 (BLUES)            
1 29520U 06049A   24077.87009707  .00000013  00000+0  00000+0 0  9997
2 29520   0.6939  92.9101 0006089 273.4211  21.6400  0.98811973 43222
GALAXY 17 (G-17)        
1 31307U 07016B   24077.87331691 -.00000219  00000+0  00000+0 0  9997
2 31307   0.8841  90.5157 0003121 254.8207  59.9570  1.00271384 61568
DIRECTV 10              
1 31862U 07032A   24078.01298819 -.00000116  00000+0  00000+0 0  9998
2 31862   0.0068 194.9001 0000536 103.7040 139.3092  1.00270151 61178
SPACEWAY 3              
1 32018U 07036A   24077.89563302  .00000062  00000+0  00000+0 0  9992
2 32018   1.8614  86.5993 0001309 337.4738 144.7572  0.99135473 38310
INTELSAT 11 (IS-11)     
1 32253U 07044B   24077.88167108 -.00000281  00000+0  00000+0 0  9999
2 32253   1.4278  88.8828 0003244 272.2168  89.2060  1.00271210 60265
HORIZONS-2              
1 32388U 07063B   24077.87549247 -.00000266  00000+0  00000+0 0  9999
2 32388   0.4749  90.5536 0002143 272.7785  53.9551  1.00271162 59570
DIRECTV 11              
1 32729U 08013A   24077.87044516 -.00000139  00000+0  00000+0 0  9992
2 32729   0.0436  16.5553 0000551 129.4332 244.0838  1.00271820 37356
GALAXY 18 (G-18)        
1 32951U 08024A   24078.17687962  .00000012  00000+0  00000+0 0  9992
2 32951   0.0186 157.4064 0003023 196.4659 122.9901  1.00272962 57850
INTELSAT 25 (IS-25)     
1 33153U 08034A   24077.88393366 -.00000237  00000+0  00000+0 0  9997
2 33153   0.5825  90.1779 0003032 265.4403 107.0116  1.00271123 57467
GALAXY 19 (G-19)        
1 33376U 08045A   24077.48521664 -.00000152  00000+0  00000+0 0  9992
2 33376   0.0530 273.7984 0002798  78.0046 261.3898  1.00271724 56667
FM-5                    
1 35493U 09034A   24077.58666345 -.00000213  00000+0  00000+0 0  9998
2 35493   0.0262 265.2766 0001779 291.3059 104.0924  1.00271312 38405
INTELSAT 14 (IS-14)     
1 36097U 09064A   24078.22063271 -.00000287  00000+0  00000+0 0  9994
2 36097   0.0189 147.7658 0002534 217.7626 205.1732  1.00269155 52464
INTELSAT 15 (IS-15)     
1 36106U 09067A   24077.89007862 -.00000198  00000+0  00000+0 0  9995
2 36106   0.0184 117.5901 0002301 238.4716 225.4336  1.00271659 32991
DIRECTV 12              
1 36131U 09075A   24077.86974899 -.00000116  00000+0  00000+0 0  9992
2 36131   0.0114  93.7855 0000655 227.9942  64.5105  1.00271817 38324
INTELSAT 16 (IS-16)     
1 36397U 10006A   24077.87505736 -.00000257  00000+0  00000+0 0  9999
2 36397   0.0241  96.0679 0002024 259.9066  58.7448  1.00271246 51419
XM-5                    
1 37185U 10053A   24077.58091995 -.00000036  00000+0  00000+0 0  9997
2 37185   0.0411 272.6244 0000996 313.2124  43.7127  1.00271551 49244
INTELSAT 17 (IS-17)     
1 37238U 10065B   24077.89563302 -.00000015  00000+0  00000+0 0  9996
2 37238   0.0108 161.1226 0002659 215.5832 187.6573  1.00272316 45009
INTELSAT NEW DAWN       
1 37392U 11016A   24077.84979965  .00000142  00000+0  00000+0 0  9995
2 37392   0.0091 153.5879 0001085 203.0165 158.0085  1.00268326 47281
INTELSAT 18 (IS-18)     
1 37834U 11056A   24077.85443300  .00000040  00000+0  00000+0 0  9997
2 37834   0.0224 157.9742 0001842 208.5034 297.0325  1.00270404 45574
INTELSAT 22 (IS-22)     
1 38098U 12011A   24077.89563302 -.00000072  00000+0  00000+0 0  9997
2 38098   0.0027 185.0442 0001901 197.1348 188.2744  1.00272261 43818
INTELSAT 19 (IS-19)     
1 38356U 12030A   24078.13803969 -.00000070  00000+0  00000+0 0  9997
2 38356   0.0200 170.3629 0003014 190.5505  30.9787  1.00270932 43285
INTELSAT 20 (IS-20)     
1 38740U 12043A   24078.19025326 -.00000038  00000+0  00000+0 0  9991
2 38740   0.0101 131.3230 0000986 248.3430 293.5527  1.00272352 42591
INTELSAT 21 (IS-21)     
1 38749U 12045A   24077.87862528 -.00000298  00000+0  00000+0 0  9997
2 38749   0.0159 236.4809 0001740 104.7644  92.9694  1.00271557 42281
INTELSAT 23 (IS-23)     
1 38867U 12057A   24077.87966955 -.00000298  00000+0  00000+0 0  9990
2 38867   0.0134 199.7703 0000834 244.0317 355.7517  1.00268748 41705
FM-6                    
1 39360U 13058A   24077.65234522 -.00000030  00000+0  00000+0 0  9999
2 39360   0.0121 205.9473 0000559 356.3139  92.1236  1.00270899 37825
INTELSAT 30 (IS-30)     
1 40271U 14062A   24077.07479921 -.00000163  00000+0  00000+0 0  9995
2 40271   0.0178 131.7811 0000592 190.5497 144.6752  1.00269875 34357
DIRECTV 14              
1 40333U 14078B   24077.87018410 -.00000138  00000+0  00000+0 0  9993
2 40333   0.0470 286.0739 0000661 342.9340 120.9239  1.00271521 33820
DIRECTV 15              
1 40663U 15026A   24077.65495590 -.00000115  00000+0  00000+0 0  9992
2 40663   0.0317 100.4315 0000848 112.7247  95.4515  1.00272188 32238
SKY MEXICO-1            
1 40664U 15026B   24077.87453522 -.00000247  00000+0  00000+0 0  9992
2 40664   0.0037 136.3291 0002198 231.4889  44.1493  1.00270694 32214
INTELSAT 34 (IS-34)     
1 40874U 15039A   24077.44952925 -.00000298  00000+0  00000+0 0  9999
2 40874   0.0335 349.0361 0000603 264.3944  28.3856  1.00270948 31370
INTELSAT 31 (IS-31)     
1 41581U 16035A   24076.58252047 -.00000164  00000+0  00000+0 0  9996
2 41581   0.0079 169.6286 0002247  12.6187 107.0373  1.00280844 28441
INTELSAT 36 (IS-36)     
1 41747U 16053A   24077.57706779 -.00000037  00000+0  00000+0 0  9995
2 41747   0.0119 160.6887 0001946  46.5393 244.6181  1.00271555 27700
INTELSAT 33E (IS-33E)   
1 41748U 16053B   24078.11689319  .00000036  00000+0  00000+0 0  9995
2 41748   0.0160 218.1112 0001572 138.6373 281.4726  1.00270695 27981
INTELSAT 32E (IS-32E)   
1 41945U 17007B   24077.40066777 -.00000282  00000+0  00000+0 0  9996
2 41945   0.0142 121.1552 0000285 176.6664 338.6665  1.00271107 25980
INTELSAT 35E (IS-35E)   
1 42818U 17041A   24077.88332450 -.00000251  00000+0  00000+0 0  9996
2 42818   0.0137 169.1432 0002369 183.9150 106.3478  1.00271478 24576
